GAOFEN 3                
1 41727U 16049A   20113.90073016 -.00000030  00000-0  40515-5 0  9998
2 41727  98.4139 122.2904 0001671  99.5431 260.5949 14.42211905194876
SKYSAT-C4               
1 41771U 16058B   20113.84550505  .00001408  00000-0  40263-4 0  9991
2 41771  97.2128 184.9877 0002275 106.4490 253.7005 15.37633147200122
SKYSAT-C5               
1 41772U 16058C   20113.87589047  .00000487  00000-0  23104-4 0  9999
2 41772  97.3620 184.6152 0002139  82.5612  43.6294 15.23779832200070
SKYSAT-C2               
1 41773U 16058D   20113.75858684  .00001476  00000-0  41938-4 0  9997
2 41773  97.2131 185.2072 0002311  84.8851 275.2658 15.37761497200134
SKYSAT-C3               
1 41774U 16058E   20113.83504846  .00001434  00000-0  40860-4 0  9992
2 41774  97.2126 185.2626 0003536 109.5320 250.6308 15.37701544200136
ALSAT 1B                
1 41785U 16059C   20113.82176393 -.00000015  00000-0  60779-5 0  9993
2 41785  98.0190 171.2672 0032164 126.5518 233.8640 14.63357496190761
PATHFINDER 1            
1 41787U 16059E   20113.74523886  .00000020  00000-0  12774-4 0  9995
2 41787  98.0223 172.1679 0031263 124.9903 235.4229 14.63724312190795
SCATSAT 1               
1 41790U 16059H   20113.88221860 -.00000002  00000-0  10386-4 0  9999
2 41790  98.1676 155.8052 0007017  89.2197 270.9788 14.50907337189162
WORLDVIEW-4 (WV-4)      
1 41848U 16067A   20113.92973933 -.00000093  00000-0  24131-8 0  9999
2 41848  97.8461 217.9586 0002570 199.6285 160.4831 15.40521608188286
GOKTURK 1A              
1 41875U 16073A   20113.86103801  .00000022  00000-0  13478-4 0  9997
2 41875  98.1596   8.7311 0001365  71.9741 288.1609 14.62751226180435
RESOURCESAT-2A          
1 41877U 16074A   20113.91266249 -.00000018  00000-0  11240-4 0  9993
2 41877  98.5951 184.5199 0001234 109.8400 250.2896 14.21681089175156
CARTOSAT-2D             
1 41948U 17008A   20113.73249733  .00000508  00000-0  27417-4 0  9995
2 41948  97.4975 172.6081 0007544 176.2849 183.8452 15.19198321176501
SENTINEL-2B             
1 42063U 17013A   20113.91373988 -.00000011  00000-0  12446-4 0  9996
2 42063  98.5622 188.9202 0001327  77.9231 282.2084 14.30820875163432
ZHUHAI-1 02 (CAS 4B)    
1 42759U 17034B   20113.78250315  .00000152  00000-0  22770-4 0  9990
2 42759  43.0202 332.9203 0010950  33.1145  59.5596 15.09794677157551
NUSAT-3 (MILANESAT)     
1 42760U 17034C   20113.76698819  .00000136  00000-0  21507-4 0  9994
2 42760  43.0187 331.8495 0009324  51.1697  38.2626 15.10262654157578
ZHUHAI-1 01 (CAS 4A)    
1 42761U 17034D   20113.92779409  .00000275  00000-0  30183-4 0  9992
2 42761  43.0202 331.4592 0011254  35.5708  55.0860 15.09874193157577
CARTOSAT-2E             
1 42767U 17036C   20113.88273383  .00000403  00000-0  22347-4 0  9991
2 42767  97.4277 173.5242 0007593 230.6534 129.4028 15.19244854157096
FORMOSAT-5              
1 42920U 17049A   20113.85557588 -.00000043  00000-0  31435-6 0  9996
2 42920  98.3002 193.5600 0011527 136.0960 224.1147 14.50847706140958
SENTINEL-5P             
1 42969U 17064A   20113.56945854 -.00000023  00000-0  96358-5 0  9993
2 42969  98.7320  53.4669 0001111  88.9448 271.1856 14.19552293130824
SKYSAT-C11              
1 42987U 17068A   20113.90450339  .00001645  00000-0  46028-4 0  9992
2 42987  97.2235 228.9732 0008439 248.2765 111.7582 15.38057096137540
SKYSAT-C10              
1 42988U 17068B   20113.89193621  .00000264  00000-0  91553-5 0  9999
2 42988  97.2275 228.7093 0002073 306.7262  53.3793 15.38026183137563
SKYSAT-C9               
1 42989U 17068C   20113.88029721  .00001651  00000-0  46106-4 0  9992
2 42989  97.2239 228.3421 0003252 123.3997 236.7560 15.38131767137758
SKYSAT-C8               
1 42990U 17068D   20113.87309015  .00001642  00000-0  45921-4 0  9994
2 42990  97.2274 229.0714 0001114 242.0763 118.0369 15.38095728137583
SKYSAT-C7               
1 42991U 17068E   20113.73038200  .00001731  00000-0  48192-4 0  9997
2 42991  97.2280 228.9272 0000629 113.2503 246.8808 15.38167233137566
SKYSAT-C6               
1 42992U 17068F   20113.85027974  .00001697  00000-0  47295-4 0  9991
2 42992  97.2292 229.2435 0003332 130.2820 229.8717 15.38163312137597
CARTOSAT-2F             
1 43111U 18004A   20113.87314223  .00000401  00000-0  22173-4 0  9994
2 43111  97.3902 174.7593 0002904 246.3763 224.1017 15.19264042126273
MICROSAT-TD             
1 43128U 18004T   20113.74763621  .00035232  00000-0  20398-3 0  9994
2 43128  96.7590 167.3177 0007203  32.7202 327.4512 15.78480107130599
NUSAT-4 (ADA)           
1 43195U 18015D   20113.87935978  .00001067  00000-0  46377-4 0  9995
2 43195  97.4303 242.9904 0016010 296.0003 163.2640 15.24410305123427
NUSAT-5 (MARYAM)        
1 43204U 18015K   20113.87525631  .00001139  00000-0  48995-4 0  9995
2 43204  97.4310 243.1771 0015572 298.7961 159.8208 15.24617376123030
GAOFEN 1-02             
1 43259U 18031A   20113.74400252  .00000059  00000-0  15809-4 0  9998
2 43259  97.9661 192.8521 0005146  26.6541 333.4930 14.76444627111206
GAOFEN 1-03             
1 43260U 18031B   20113.85698750  .00000017  00000-0  97082-5 0  9992
2 43260  97.9655 192.9755 0006782  85.4766 274.7210 14.76446142111213
GAOFEN 1-04             
1 43262U 18031D   20113.90214187  .00000027  00000-0  11186-4 0  9999
2 43262  97.9660 192.9829 0004773  37.4650 322.6877 14.76449265111211
SENTINEL-3B             
1 43437U 18039A   20113.71877215 -.00000003  00000-0  16684-4 0  9990
2 43437  98.6322 181.1961 0001214  76.6486 283.4829 14.26733900103796
GAOFEN 5                
1 43461U 18043A   20113.81816459  .00000011  00000-0  12312-4 0  9998
2 43461  98.1940  51.7762 0001350 167.5699 192.5536 14.57757971104190
GAOFEN 6                
1 43484U 18048A   20113.92967559  .00000014  00000-0  93461-5 0  9996
2 43484  97.9875 194.3575 0008689 207.7556 152.3183 14.76487566101938
GAOFEN 11               
1 43585U 18063A   20113.86730220  .00000671  00000-0  30912-4 0  9991
2 43585  97.3849 194.3680 0018428  55.9728  79.2234 15.23564459 96777
AEOLUS                  
1 43600U 18066A   20113.54778580  .00034606  00000-0  13474-3 0  9996
2 43600  96.7196 120.7809 0007092  85.8257 274.3827 15.87003401 96505
ICESAT-2                
1 43613U 18070A   20113.90113520  .00001409  00000-0  51014-4 0  9990
2 43613  92.0007  46.4179 0002891  97.9575 262.2002 15.28273330 89409
HYSIS                   
1 43719U 18096A   20113.79072959  .00000089  00000-0  19136-4 0  9994
2 43719  97.9078 181.9681 0011862  52.7600 307.4684 14.78729449 75445
KAZSTSAT                
1 43783U 18099AB  20113.78048719 -.00000207  00000-0 -14297-4 0  9991
2 43783  97.7213 186.0567 0008849  18.8194 341.3351 14.93605692 75523
SAUDISAT 5A             
1 43831U 18102A   20113.84436990  .00000912  00000-0  63209-4 0  9997
2 43831  97.5725 190.6537 0014103 353.7996 143.0004 15.08029340 75756
SAUDISAT 5B             
1 43833U 18102C   20113.89548987  .00000409  00000-0  30261-4 0  9997
2 43833  97.5730 191.0334 0015294   1.7378 124.0856 15.08469926 75774
GAOFEN 10R              
1 44622U 19066A   20113.87775216  .00000100  00000-0  19618-4 0  9990
2 44622  97.8127  58.6706 0001947  70.2225 289.9198 14.80658123 29763
CARTOSAT-3              
1 44804U 19081A   20113.87435476  .00000377  00000-0  21397-4 0  9993
2 44804  97.5014 175.0357 0017057  83.1320  27.2014 15.18805421 22367
GAOFEN 12               
1 44819U 19082A   20113.92088548  .00000023  00000-0  98665-5 0  9991
2 44819  97.9176 136.7084 0001573 101.9314 258.2071 14.80204194 21732
NUSAT-7 (SOPHIE)        
1 45017U 20003B   20113.82706068  .00000837  00000-0  33823-4 0  9997
2 45017  97.3209 181.0094 0011471 286.8521  73.1460 15.27471319 15061
NUSAT-8 (MARIE)         
1 45018U 20003C   20113.84222372  .00001186  00000-0  47115-4 0  9998
2 45018  97.3225 181.0091 0010630 283.3405  76.6649 15.27227668 15069
